ONEWEB-0448             
1 51641U 22012V   22061.91667824 -.01005314  00000+0 -55646-1 0  9990
2 51641  87.4063 354.6741 0018193 170.0441  44.0203 15.16649483  4347
ONEWEB-0449             
1 51642U 22012W   22062.25001157 -.00937963  00000+0 -52261-1 0  9993
2 51642  87.4096 354.5562 0018458 165.7360  79.8463 15.16221917  4419
ONEWEB-0451             
1 51643U 22012X   22062.50001157 -.00845246  00000+0 -39305-1 0  9998
2 51643  87.3514 354.4155 0018282 161.9015 257.6016 15.22589978  4467
ONEWEB-0452             
1 51644U 22012Y   22062.25001157 -.00780882  00000+0 -32098-1 0  9997
2 51644  87.3706 354.5009 0014926 156.7549  57.9243 15.26568148  4424
ONEWEB-0455             
1 51645U 22012Z   22062.50001157 -.01010872  00000+0 -59552-1 0  9996
2 51645  87.4068 354.4803 0016668 171.5574 298.9834 15.14510656  4438
ONEWEB-0456             
1 51646U 22012AA  22062.25001157 -.00940542  00000+0 -47121-1 0  9993
2 51646  87.4147 354.5316 0015689 169.8916 229.2284 15.19962986  4415
ONEWEB-0457             
1 51647U 22012AB  22062.25001157 -.00947331  00000+0 -49711-1 0  9994
2 51647  87.4106 354.5385 0014797 165.4918 178.6603 15.18405136  4410
ONEWEB-0458             
1 51648U 22012AC  22062.25001157 -.00944436  00000+0 -51402-1 0  9998
2 51648  87.4119 354.5521 0016384 160.2181 121.8901 15.17100659  4418
ONEWEB-0461             
1 51649U 22012AD  22062.50001157 -.00874300  00000+0 -44126-1 0  9994
2 51649  87.3934 354.4486 0016673 171.5890 164.1211 15.19936523  4452
ONEWEB-0463             
1 51650U 22012AE  22062.25001157 -.00784140  00000+0 -35555-1 0  9996
2 51650  87.3560 354.5015 0017668 160.9806 340.0473 15.23258026  4424
ONEWEB-0464             
1 51651U 22012AF  22062.58334491 -.00970128  00000+0 -52452-1 0  9991
2 51651  87.4124 354.4298 0015012 162.6025 190.2166 15.17429933  4465
ONEWEB-0468             
1 51652U 22012AG  22062.58334491 -.00954957  00000+0 -55195-1 0  9991
2 51652  87.4061 354.4404 0018030 168.7140  69.3785 15.14993322  4450
ONEWEB-0473             
1 51653U 22012AH  22062.25001157 -.00948876  00000+0 -50921-1 0  9991
2 51653  87.4109 354.5525 0016081 161.1979 149.1978 15.17608921  4418
ONEWEB-0474             
1 51654U 22012AJ  22062.58334491 -.00960966  00000+0 -56370-1 0  9996
2 51654  87.4076 354.4560 0014696 172.7596  13.7974 15.14553612  4441
ONEWEB-0475             
1 51655U 22012AK  22062.58334491 -.00811945  00000+0 -38357-1 0  9994
2 51655  87.3529 354.3978 0017717 167.1111 309.9484 15.21962831  4467
